SL-8 R/B                
1 15483U 85006B   26159.25816307  .00000257  00000+0  93719-4 0  9991
2 15483  74.0455  94.4944 0018535 343.2005 125.8705 14.37831105167040
SL-12 R/B(2)            
1 15772U 85042D   26159.03930038  .00000070  00000+0  52964-4 0  9996
2 15772  71.1085 256.8429 0035792 341.7101 191.6683 14.22004337127230
SL-14 R/B               
1 15945U 85069B   26158.74532968  .00000520  00000+0  55883-4 0  9997
2 15945  82.5265 300.2463 0017300 252.7113 107.2211 14.86508470186219
SL-16 R/B               
1 16182U 85097B   26159.18042007 -.00000050  00000+0 -13207-5 0  9996
2 16182  71.0038 310.0400 0005616 129.4564  42.7563 14.16612393100044
SL-14 R/B               
1 16496U 86006B   26159.10152744  .00000625  00000+0  63603-4 0  9997
2 16496  82.5260 174.6634 0075642 334.0281  25.7147 14.86936733162642
COSMOS 1743             
1 16719U 86034A   26158.94839245  .00048250  00000+0  46857-3 0  9992
2 16719  82.5286 338.5501 0003535 315.6108  44.4868 15.66116987194347
SL-14 R/B               
1 16792U 86046B   26159.06044789  .00000404  00000+0  43718-4 0  9994
2 16792  82.4817 354.8006 0021649 290.7360  69.1536 14.85665172139820
SL-14 R/B               
1 16882U 86055B   26159.19820630  .00000412  00000+0  44581-4 0  9993
2 16882  82.5211  41.5843 0019807  36.5438  80.6089 14.85717035132801
AJISAI (EGS)            
1 16908U 86061A   26159.30821483 -.00000090  00000+0  49600-4 0  9999
2 16908  50.0061 174.6986 0011272 158.0777 300.4967 12.44516722479280
SL-14 R/B               
1 17567U 87024B   26159.06104327  .00000422  00000+0  45174-4 0  9995
2 17567  82.5284   7.8295 0017333 325.6156  34.3938 14.86207476101550
COSMOS 1833             
1 17589U 87027A   26159.18876879  .00000310  00000+0  19153-3 0  9996
2 17589  70.9157 135.7830 0022579  70.0518 290.3032 14.13043216 23104
SL-16 R/B               
1 17590U 87027B   26159.25193716  .00000171  00000+0  10841-3 0  9998
2 17590  71.0031  85.6570 0006071 322.9601  37.1103 14.17171748 28178
SL-14 R/B               
1 17912U 87038B   26159.23715528  .00000351  00000+0  37896-4 0  9997
2 17912  82.5015 211.5025 0018163 221.9050 138.0777 14.85440116 92678
COSMOS 1844             
1 17973U 87041A   26159.19717739 -.00000143  00000+0 -48867-4 0  9990
2 17973  70.8984 203.2702 0033256 248.5159 111.2416 14.14569844 16384
SL-14 R/B               
1 18153U 87055B   26158.99622355  .00000475  00000+0  51669-4 0  9992
2 18153  82.4996 263.8927 0022098  76.2131 284.1542 14.85704817 83345
COSMOS 1867             
1 18187U 87060A   26159.05130293 -.00000025  00000+0  28078-4 0  9998
2 18187  65.0116  53.6444 0016320 282.0532  77.8723 14.31514869 32872
SL-14 R/B               
1 18749U 88001B   26158.93023691  .00000501  00000+0  55082-4 0  9990
2 18749  82.5124 110.4819 0016687 302.9570  57.0041 14.85603059 55425
COSMOS 1933             
1 18958U 88020A   26159.07669205  .00004389  00000+0  21044-3 0  9994
2 18958  82.5123 161.4572 0002617 224.4086 135.6939 15.18658150 63940
SL-3 R/B                
1 19046U 88032B   26159.22900264  .00004285  00000+0  19640-3 0  9990
2 19046  97.5253 142.2794 0023651 278.6984  81.1572 15.20772910 65866
SL-16 R/B               
1 19120U 88039B   26159.31309031  .00000105  00000+0  72326-4 0  9993
2 19120  71.0148 236.9224 0022721 206.2427 153.7549 14.19629116971248
COSMOS 1953             
1 19210U 88050A   26159.18903801  .00006182  00000+0  21240-3 0  9995
2 19210  82.5076  67.1068 0011356 154.3406 205.8400 15.29850093 51614
SL-8 R/B                
1 19257U 88053B   26159.19780956  .00000260  00000+0  92624-4 0  9990
2 19257  74.0478 305.6279 0019225 104.1970  68.6400 14.38964326989612
COSMOS 1975             
1 19573U 88093A   26159.12460431  .00007923  00000+0  27799-3 0  9994
2 19573  82.5200  26.8176 0010565 203.4179 156.6582 15.29211307 33221
SL-14 R/B               
1 19574U 88093B   26159.20152302  .00000481  00000+0  52368-4 0  9992
2 19574  82.5305 317.0816 0022189  98.1209  74.3909 14.85734946 14455
SL-16 R/B               
1 19650U 88102B   26158.89341898 -.00000047  00000+0  46148-6 0  9992
2 19650  71.0005 321.6947 0016113 238.2206 121.7348 14.16166746939664
INTERCOSMOS 24          
1 20261U 89080A   26159.20046268  .00000906  00000+0  25725-3 0  9995
2 20261  82.6074  45.4917 1188342  82.7388 290.6951 12.59647486678198
SL-14 R/B               
1 20262U 89080C   26158.96273641  .00000488  00000+0  14589-3 0  9996
2 20262  82.5919 115.2334 1229277 338.5079  16.8358 12.50564849671438
DELTA 1 R/B             
1 20323U 89089B   26159.11481980  .00000376  00000+0  10167-3 0  9992
2 20323  97.0641 352.1247 0068454 195.6386 164.2699 14.50725568908847
ARIANE 40 R/B           
1 20443U 90005H   26159.15017712  .00000253  00000+0  93998-4 0  9995
2 20443  98.2962 217.0468 0008873 295.5878  64.4394 14.39922785905823
DELTA 2 R/B(1)          
1 20453U 90008B   26159.08654945  .00084361  00000+0  65682-3 0  9996
2 20453  35.6007 296.4795 0067347  27.7476 332.6833 15.67415827940275
