OBJECT_NAME,OBJECT_ID,EPOCH,MEAN_MOTION,ECCENTRICITY,INCLINATION,RA_OF_ASC_NODE,ARG_OF_PERICENTER,MEAN_ANOMALY,EPHEMERIS_TYPE,CLASSIFICATION_TYPE,NORAD_CAT_ID,ELEMENT_SET_NO,REV_AT_EPOCH,BSTAR,MEAN_MOTION_DOT,MEAN_MOTION_DDOT
SL-8 R/B,1985-006B,2026-06-08T06:11:45.289248,14.37831105,.00185359,74.0455,94.4944,343.2005,125.8705,0,U,15483,999,16704,.93719077E-4,.257E-5,0
SL-12 R/B(2),1985-042D,2026-06-08T00:56:35.552832,14.22004337,.0035792,71.1085,256.8429,341.7101,191.6683,0,U,15772,999,12723,.52964252E-4,.7E-6,0
SL-14 R/B,1985-069B,2026-06-07T17:53:16.484352,14.86508470,.00173005,82.5265,300.2463,252.7113,107.2211,0,U,15945,999,18621,.55883343E-4,.52E-5,0
SL-16 R/B,1985-097B,2026-06-08T04:19:48.294048,14.16612393,.00056168,71.0038,310.0400,129.4564,42.7563,0,U,16182,999,10004,-.1320683E-5,-.5E-6,0
SL-14 R/B,1986-006B,2026-06-08T02:26:11.970816,14.86936733,.00756428,82.5260,174.6634,334.0281,25.7147,0,U,16496,999,16264,.63602525E-4,.625E-5,0
COSMOS 1743,1986-034A,2026-06-07T22:45:41.107680,15.66116987,.00035359,82.5286,338.5501,315.6108,44.4868,0,U,16719,999,19434,.46857376E-3,.4825E-3,0
SL-14 R/B,1986-046B,2026-06-08T01:27:02.697696,14.85665172,.00216496,82.4817,354.8006,290.7360,69.1536,0,U,16792,999,13982,.43718373E-4,.404E-5,0
SL-14 R/B,1986-055B,2026-06-08T04:45:25.024320,14.85717035,.00198076,82.5211,41.5843,36.5438,80.6089,0,U,16882,999,13280,.44580809E-4,.412E-5,0
AJISAI (EGS),1986-061A,2026-06-08T07:23:49.761312,12.44516722,.00112724,50.0061,174.6986,158.0777,300.4967,0,U,16908,999,47928,.49599708E-4,-.9E-6,0
SL-14 R/B,1987-024B,2026-06-08T01:27:54.138528,14.86207476,.00173336,82.5284,7.8295,325.6156,34.3938,0,U,17567,999,10155,.45173521E-4,.422E-5,0
COSMOS 1833,1987-027A,2026-06-08T04:31:49.623456,14.13043216,.00225791,70.9157,135.7830,70.0518,290.3032,0,U,17589,999,2310,.19153116E-3,.31E-5,0
SL-16 R/B,1987-027B,2026-06-08T06:02:47.370624,14.17171748,.00060718,71.0031,85.6570,322.9601,37.1103,0,U,17590,999,2817,.10841073E-3,.171E-5,0
SL-14 R/B,1987-038B,2026-06-08T05:41:30.216192,14.85440116,.00181633,82.5015,211.5025,221.9050,138.0777,0,U,17912,999,9267,.37895666E-4,.351E-5,0
COSMOS 1844,1987-041A,2026-06-08T04:43:56.126496,14.14569844,.00332565,70.8984,203.2702,248.5159,111.2416,0,U,17973,999,1638,-.48866654E-4,-.143E-5,0
SL-14 R/B,1987-055B,2026-06-07T23:54:33.714720,14.85704817,.00220982,82.4996,263.8927,76.2131,284.1542,0,U,18153,999,8334,.51668895E-4,.475E-5,0
COSMOS 1867,1987-060A,2026-06-08T01:13:52.573152,14.31514869,.00163209,65.0116,53.6444,282.0532,77.8723,0,U,18187,999,3287,.28077824E-4,-.25E-6,0
SL-14 R/B,1988-001B,2026-06-07T22:19:32.469024,14.85603059,.00166872,82.5124,110.4819,302.9570,57.0041,0,U,18749,999,5542,.55082213E-4,.501E-5,0
COSMOS 1933,1988-020A,2026-06-08T01:50:26.193120,15.18658150,.00026178,82.5123,161.4572,224.4086,135.6939,0,U,18958,999,6394,.21044416E-3,.4389E-4,0
SL-3 R/B,1988-032B,2026-06-08T05:29:45.828096,15.20772910,.00236518,97.5253,142.2794,278.6984,81.1572,0,U,19046,999,6586,.19639676E-3,.4285E-4,0
SL-16 R/B,1988-039B,2026-06-08T07:30:51.002784,14.19629116,.00227217,71.0148,236.9224,206.2427,153.7549,0,U,19120,999,97124,.72325768E-4,.105E-5,0
COSMOS 1953,1988-050A,2026-06-08T04:32:12.884064,15.29850093,.00113563,82.5076,67.1068,154.3406,205.8400,0,U,19210,999,5161,.21240352E-3,.6182E-4,0
SL-8 R/B,1988-053B,2026-06-08T04:44:50.745984,14.38964326,.0019225,74.0478,305.6279,104.1970,68.6400,0,U,19257,999,98961,.92624138E-4,.26E-5,0
COSMOS 1975,1988-093A,2026-06-08T02:59:25.812384,15.29211307,.00105652,82.5200,26.8176,203.4179,156.6582,0,U,19573,999,3322,.27799242E-3,.7923E-4,0
SL-14 R/B,1988-093B,2026-06-08T04:50:11.588928,14.85734946,.00221892,82.5305,317.0816,98.1209,74.3909,0,U,19574,999,1445,.52367961E-4,.481E-5,0
SL-16 R/B,1988-102B,2026-06-07T21:26:31.399872,14.16166746,.00161131,71.0005,321.6947,238.2206,121.7348,0,U,19650,999,93966,.461476E-6,-.47E-6,0
INTERCOSMOS 24,1989-080A,2026-06-08T04:48:39.975552,12.59647486,.11883421,82.6074,45.4917,82.7388,290.6951,0,U,20261,999,67819,.25724929E-3,.906E-5,0
SL-14 R/B,1989-080C,2026-06-07T23:06:20.425824,12.50564849,.12292775,82.5919,115.2334,338.5079,16.8358,0,U,20262,999,67143,.14588536E-3,.488E-5,0
DELTA 1 R/B,1989-089B,2026-06-08T02:45:20.430720,14.50725568,.0068454,97.0641,352.1247,195.6386,164.2699,0,U,20323,999,90884,.10167391E-3,.376E-5,0
ARIANE 40 R/B,1990-005H,2026-06-08T03:36:15.303168,14.39922785,.00088733,98.2962,217.0468,295.5878,64.4394,0,U,20443,999,90582,.9399821E-4,.253E-5,0
DELTA 2 R/B(1),1990-008B,2026-06-08T02:04:37.872480,15.67415827,.00673473,35.6007,296.4795,27.7476,332.6833,0,U,20453,999,94027,.65681994E-3,.84361E-3,0
